CCSDS_OMM_VERS,COMMENT,CREATION_DATE,ORIGINATOR,OBJECT_NAME,OBJECT_ID,CENTER_NAME,REF_FRAME,TIME_SYSTEM,MEAN_ELEMENT_THEORY,EPOCH,MEAN_MOTION,ECCENTRICITY,INCLINATION,RA_OF_ASC_NODE,ARG_OF_PERICENTER,MEAN_ANOMALY,EPHEMERIS_TYPE,CLASSIFICATION_TYPE,NORAD_CAT_ID,ELEMENT_SET_NO,REV_AT_EPOCH,BSTAR,MEAN_MOTION_DOT,MEAN_MOTION_DDOT,SEMIMAJOR_AXIS,PERIOD,APOAPSIS,PERIAPSIS,OBJECT_TYPE,RCS_SIZE,COUNTRY_CODE,LAUNCH_DATE,SITE,DECAY_DATE,FILE,GP_ID,TLE_LINE0,TLE_LINE1,TLE_LINE2
3.0,GENERATED VIA SPACE-TRACK.ORG API,2004-08-16T23:15:50,18 SPCS,TRANSIT 11 DEB,1966-005G,EARTH,TEME,UTC,SGP4,1982-05-13T11:10:02.748576,14.25263775,0.0113289,89.7537,304.7194,247.6584,111.2571,0,U,11990,999,81037,0.021801,0.00054817,0.0,7185.747,101.033,889.019,726.205,DEBRIS,SMALL,US,1966-01-28,AFWTR,1983-01-11,34343,12809968,0 TRANSIT 11 DEB,1 11990U 66005G   82133.46530959  .00054817 +00000-0 +21801-1 0  9993,2 11990 089.7537 304.7194 0113289 247.6584 111.2571 14.25263775810378
3.0,GENERATED VIA SPACE-TRACK.ORG API,2005-06-09T11:44:05,18 SPCS,THORAD AGENA D DEB,1970-025AE,EARTH,TEME,UTC,SGP4,1991-10-23T01:26:05.185536,15.88800814,0.0006489,99.86,335.0408,50.0064,310.4278,0,U,4646,999,12364,0.012342,0.03469178,0.0,6683.785,90.634,309.987,301.313,DEBRIS,SMALL,US,1970-04-08,AFWTR,1991-10-25,145815,48699628,0 THORAD AGENA D DEB,1 04646U 70025 AE 91296.05978224  .03469178 +00000-0 +12342-1 0  9999,2 04646 099.8600 335.0408 0006489 050.0064 310.4278 15.88800814123643
3.0,GENERATED VIA SPACE-TRACK.ORG API,2004-08-16T23:12:32,18 SPCS,SL-12 R/B(AUX MOTOR),1980-081D,EARTH,TEME,UTC,SGP4,1980-12-23T18:52:46.308575,2.29729381,0.7294614,47.0972,258.8855,21.4059,359.6606,0,U,12012,999,180,0.00043868,0.00064383,-4.5513e-05,24261.878,626.824,35581.847,185.639,ROCKET BODY,,,,,1981-04-01,34277,11621265,0 SL-12 R/B(AUX MOTOR),1 12012U 80081  D 80358.78664709  .00064383 -45513-4 +43868-3 0  9993,2 12012 047.0972 258.8855 7294614 021.4059 359.6606 02.29729381001809
3.0,GENERATED VIA SPACE-TRACK.ORG API,2004-08-16T23:15:56,18 SPCS,FSW-0 4,1982-090A,EARTH,TEME,UTC,SGP4,1982-09-21T03:34:15.151008,16.49464989,0.0022817,62.9717,358.4487,153.8779,207.2785,0,U,13521,999,191,8.162e-06,0.19263127,2.68e-08,6518.885,87.301,155.625,125.876,PAYLOAD,,,,,1982-09-21,34345,12919253,0 FSW-0 4,1 13521U 82090  A 82264.14878647  .19263127 +00268-5 +08162-4 0  9991,2 13521 062.9717 358.4487 0022817 153.8779 207.2785 16.49464989001917
3.0,GENERATED VIA SPACE-TRACK.ORG API,2004-08-15T23:35:26,18 SPCS,DISCOVERER 34 DEB,1961-029E,EARTH,TEME,UTC,SGP4,1961-11-19T04:25:33.283200,15.15551979,0.0425815,82.517,37.8822,107.1694,255.2181,0,U,203,999,200,0.0,0.01258879,0.0,6897.444,95.014,813.013,225.606,DEBRIS,,,,,1961-12-12,33907,8674693,0 DISCOVERER 34 DEB,1 00203U 61029  E 61323.18441300  .01258879 +00000-0 +00000-0 0  9999,2 00203 082.5170 037.8822 0425815 107.1694 255.2181 15.15551979002007
3.0,GENERATED VIA SPACE-TRACK.ORG API,2004-08-17T15:09:09,18 SPCS,MIR DEB,1986-017KD,EARTH,TEME,UTC,SGP4,1997-05-14T11:19:07.677696,16.31935259,0.0010146,51.6365,226.92,333.7326,26.3034,0,U,23884,999,5570,0.00099457,0.05733833,1.2275e-05,6565.485,88.238,194.011,180.688,DEBRIS,MEDIUM,CIS,1986-02-19,TTMTR,1997-05-15,35232,24869211,0 MIR DEB,1 23884U 86017KD  97134.47161664  .05733833  12275-4  99457-3 0  9996,2 23884 051.6365 226.9200 0010146 333.7326 026.3034 16.31935259 55702
3.0,GENERATED VIA SPACE-TRACK.ORG API,2004-08-15T23:35:50,18 SPCS,SL-3 R/B,1967-119B,EARTH,TEME,UTC,SGP4,1967-12-09T07:13:04.854431,16.37965561,0.0013014,65.654,210.5623,40.499,319.7055,0,U,3056,999,94,0.0,0.05532364,0.0,6549.361,87.913,179.749,162.702,ROCKET BODY,,,,,1967-12-09,33915,8758422,0 SL-3 R/B,1 03056U 67119  B 67343.30075063  .05532364 +00000-0 +00000-0 0  9993,2 03056 065.6540 210.5623 0013014 040.4990 319.7055 16.37965561000948
3.0,GENERATED VIA SPACE-TRACK.ORG API,2011-10-22T17:24:10,18 SPCS,FENGYUN 1C DEB,1999-025ACE,EARTH,TEME,UTC,SGP4,2011-10-22T20:32:20.837472,15.81379344,0.0031635,97.89,269.5386,144.8229,217.3006,0,U,30367,999,24740,0.19496,0.57041125,0.0,6704.68,91.059,347.755,305.335,DEBRIS,SMALL,PRC,1999-05-10,TSC,2011-10-23,1176216,85551043,0 FENGYUN 1C DEB,1 30367U 99025ACE 11295.85579673  .57041125  00000-0  19496+0 0  9995,2 30367 097.8900 269.5386 0031635 144.8229 217.3006 15.81379344247402
3.0,GENERATED VIA SPACE-TRACK.ORG API,2004-08-15T23:36:23,18 SPCS,SL-3 R/B,1968-051B,EARTH,TEME,UTC,SGP4,1968-06-21T01:56:54.720960,16.41231295,0.0025357,51.7371,355.4898,355.6652,4.4055,0,U,3295,999,46,0.0,0.08136367,0.0,6540.67,87.739,179.12,145.95,ROCKET BODY,,,,,1968-06-21,33926,8787894,0 SL-3 R/B,1 03295U 68051  B 68173.08118890  .08136367 +00000-0 +00000-0 0  9993,2 03295 051.7371 355.4898 0025357 355.6652 004.4055 16.41231295000463
3.0,GENERATED VIA SPACE-TRACK.ORG API,2022-11-11T17:24:15,18 SPCS,SPACEBEE-26,2020-085AD,EARTH,TEME,UTC,SGP4,2022-11-11T08:06:15.752448,16.25351006,0.001364,97.4033,100.5129,308.2826,51.7238,0,U,46956,999,11031,0.0026061,0.07678241,2.4606e-06,6583.2,88.596,214.045,196.086,PAYLOAD,SMALL,US,2020-11-20,RLLC,2022-11-16,3651496,217433595,0 SPACEBEE-26,1 46956U 20085AD  22315.33768232  .07678241  24606-5  26061-2 0  9997,2 46956  97.4033 100.5129 0013640 308.2826  51.7238 16.25351006110310
3.0,GENERATED VIA SPACE-TRACK.ORG API,2004-08-17T14:49:45,18 SPCS,SL-4 R/B,1992-025B,EARTH,TEME,UTC,SGP4,1992-05-03T17:33:41.940288,16.48190997,0.0019747,69.9693,39.5812,60.5137,300.7023,0,U,21954,999,70,0.00017899,0.14579672,2.1508e-05,6522.244,87.368,156.989,131.23,ROCKET BODY,,,,,1992-05-03,34844,18896286,0 SL-4 R/B,1 21954U 92025  B 92124.73173542  .14579672 +21508-4 +17899-3 0  9997,2 21954 069.9693 039.5812 0019747 060.5137 300.7023 16.48190997000709
3.0,GENERATED VIA SPACE-TRACK.ORG API,2005-11-11T16:04:16,18 SPCS,DELTA 1 DEB,1978-026FR,EARTH,TEME,UTC,SGP4,2005-11-11T20:09:34.715232,16.1728064,0.0017832,98.8641,265.0442,161.6147,205.4177,0,U,13578,999,25145,0.0094149,0.14892977,3.2673e-06,6605.086,89.038,238.729,215.173,DEBRIS,SMALL,US,1978-03-05,AFWTR,2005-11-11,203409,55416507,0 DELTA 1 DEB,1 13578U 78026FR  05315.83998513  .14892977  32673-5  94149-2 0  9999,2 13578 098.8641 265.0442 0017832 161.6147 205.4177 16.17280640251450
3.0,GENERATED VIA SPACE-TRACK.ORG API,2022-06-01T06:14:15,18 SPCS,COSMOS 1408 DEB,1982-092YD,EARTH,TEME,UTC,SGP4,2022-05-30T20:17:52.725696,15.93177029,0.0020545,82.4452,291.1751,236.359,123.5724,0,U,50264,999,2634,0.016058,0.04736974,0.027786,6671.536,90.385,307.107,279.694,DEBRIS,SMALL,CIS,1982-09-16,PKMTR,2022-05-31,3474670,205067093,0 COSMOS 1408 DEB,1 50264U 82092YD  22150.84574914  .04736974  27786-1  16058-1 0  9992,2 50264  82.4452 291.1751 0020545 236.3590 123.5724 15.93177029 26347
3.0,GENERATED VIA SPACE-TRACK.ORG API,2004-08-15T23:39:11,18 SPCS,NIMBUS 1,1964-052A,EARTH,TEME,UTC,SGP4,1974-05-16T05:35:51.243071,16.33494197,0.0006389,98.6693,167.0924,286.6192,73.4345,0,U,872,999,53210,0.001193,0.46553534,0.52556,6561.307,88.154,187.364,178.98,PAYLOAD,,,,,1974-05-16,33982,9152467,0 NIMBUS 1,1 00872U 64052  A 74136.23323198  .46553534 +52556-0 +11930-2 0  9990,2 00872 098.6693 167.0924 0006389 286.6192 073.4345 16.33494197532103
3.0,GENERATED VIA SPACE-TRACK.ORG API,2004-08-20T11:52:23,18 SPCS,COSMOS 1030 DEB,1978-083L,EARTH,TEME,UTC,SGP4,2004-08-20T15:31:32.775168,16.03524427,0.0220233,61.3892,121.6257,206.2389,160.0618,0,U,28401,999,19303,0.0035142,0.99999999,5.5464e-06,6642.808,89.802,410.97,118.376,DEBRIS,MEDIUM,CIS,1978-09-06,PKMTR,2004-08-20,36509,38261069,0 COSMOS 1030 DEB,1 28401U 78083L   04233.64690712  .99999999  55464-5  35142-2 0  9996,2 28401 061.3892 121.6257 0220233 206.2389 160.0618 16.03524427193034
3.0,GENERATED VIA SPACE-TRACK.ORG API,2022-03-14T02:08:39,18 SPCS,COSMOS 1408 DEB,1982-092ATH,EARTH,TEME,UTC,SGP4,2022-03-13T20:31:13.195776,15.97621804,0.0013866,82.5907,5.6545,142.4364,217.7884,0,U,50866,999,1072,0.026868,0.07450185,0.17292,6659.156,90.134,290.255,271.787,DEBRIS,SMALL,CIS,1982-09-16,PKMTR,2022-03-14,3358388,198689655,0 COSMOS 1408 DEB,1 50866U 82092ATH 22072.85501384  .07450185  17292+0  26868-1 0  9994,2 50866  82.5907   5.6545 0013866 142.4364 217.7884 15.97621804 10721
3.0,GENERATED VIA SPACE-TRACK.ORG API,2005-05-02T23:37:10,18 SPCS,SL-12 R/B(2),1987-010D,EARTH,TEME,UTC,SGP4,1987-02-13T11:38:19.340447,16.56208073,0.0002903,51.5688,200.5684,326.2931,33.8481,0,U,17368,999,220,0.00011842,0.27029476,5.8e-05,6501.179,86.945,124.932,121.157,ROCKET BODY,,,,,1987-02-13,130982,42445175,0 SL-12 R/B(2),1 17368U 87010  D 87044.48494607  .27029476 +58000-4 +11842-3 0  9999,2 17368 051.5688 200.5684 0002903 326.2931 033.8481 16.56208073002204
3.0,GENERATED VIA SPACE-TRACK.ORG API,2004-08-15T23:46:56,18 SPCS,THORAD AGENA D DEB,1969-082HK,EARTH,TEME,UTC,SGP4,1980-10-20T23:28:05.243807,15.5209818,0.0038593,69.9718,187.8517,167.885,192.3275,0,U,4939,999,1922,0.02998,0.01875412,0.0,6788.742,92.777,436.807,384.407,DEBRIS,SMALL,US,1969-09-30,AFWTR,1980-10-27,34137,11319429,0 THORAD AGENA D DEB,1 04939U 69082 HK 80294.97783847  .01875412 +00000-0 +29980-1 0  9993,2 04939 069.9718 187.8517 0038593 167.8850 192.3275 15.52098180019229
3.0,GENERATED VIA SPACE-TRACK.ORG API,2004-08-17T15:22:48,18 SPCS,PEGASUS DEB,1994-029TL,EARTH,TEME,UTC,SGP4,1998-12-16T19:48:51.555744,15.37198051,0.0059967,82.2183,123.2921,90.0838,270.7805,0,U,24463,999,26082,0.055422,0.02143166,0.0,6832.54,93.676,495.378,413.433,DEBRIS,SMALL,US,1994-05-19,AFWTR,1998-12-22,35505,29216185,0 PEGASUS DEB,1 24463U 94029TL  98350.82559671  .02143166  00000-0  55422-1 0  9993,2 24463 082.2183 123.2921 0059967 090.0838 270.7805 15.37198051260826
